NORAD_CAT_ID,OBJECT_NAME,OBJECT_TYPE,EPOCH,MEAN_MOTION,ECCENTRICITY,INCLINATION,RA_OF_ASC_NODE,ARG_OF_PERICENTER,MEAN_ANOMALY,BSTAR,MEAN_MOTION_DOT,MEAN_MOTION_DDOT,TLE_LINE0,TLE_LINE1,TLE_LINE2,SEMIMAJOR_AXIS,PERIOD,APOGEE,PERIGEE,DECAYED
55296.0,STARLINK-5285,PAYLOAD,2023-12-09 06:51:25,14.98330568,0.0002601,69.9999,295.3905,271.3946,88.6915,0.00014605,1.65e-05,0.0,0 STARLINK-5285,1 55296U 23010AD  23343.28571684  .00001650  00000-0  14605-3 0  9990,2 55296  69.9999 295.3905 0002601 271.3946  88.6915 14.98330568 51116,6950.191,96.107,573.864,570.248,0.0
55296.0,STARLINK-5285,PAYLOAD,2023-12-10 06:53:27,14.98299361,0.0002417,70.0012,292.8631,284.6707,75.4184,0.00062376,7.351e-05,0.0,0 STARLINK-5285,1 55296U 23010AD  23344.28712538  .00007351  00000-0  62376-3 0  9998,2 55296  70.0012 292.8631 0002417 284.6707  75.4184 14.98299361 50071,6950.288,96.109,573.833,570.473,0.0
55296.0,STARLINK-5285,PAYLOAD,2023-12-10 21:18:39,14.98333077,0.0002347,70.0015,291.3474,262.3599,97.7293,-4.4798e-05,-6.27e-06,0.0,0 STARLINK-5285,1 55296U 23010AD  23344.88795680 -.00000627  00000-0 -44798-4 0  9993,2 55296  70.0015 291.3474 0002347 262.3599  97.7293 14.98333077 51350,6950.183,96.107,573.68,570.417,0.0
55296.0,STARLINK-5285,PAYLOAD,2023-12-11 03:43:12,14.9832911,0.0002641,69.9999,290.679,264.0975,95.9883,-9.9578e-05,-1.281e-05,0.0,0 STARLINK-5285,1 55296U 23010AD  23345.15500041 -.00001281  00000-0 -99578-4 0  9992,2 55296  69.9999 290.6790 0002641 264.0975  95.9883 14.98329110 50206,6950.196,96.107,573.896,570.225,0.0
55296.0,STARLINK-5285,PAYLOAD,2023-12-11 06:55:28,14.98329398,0.0002674,69.9998,290.3419,268.3195,91.7658,-9.7938e-05,-1.261e-05,0.0,0 STARLINK-5285,1 55296U 23010AD  23345.28852038 -.00001261  00000-0 -97938-4 0  9998,2 55296  69.9998 290.3419 0002674 268.3195  91.7658 14.98329398 51413,6950.195,96.107,573.918,570.201,0.0
55296.0,STARLINK-5285,PAYLOAD,2023-12-11 22:56:48,14.9832624,0.0002879,69.9995,288.6585,271.4873,88.5956,2.3973e-05,1.93e-06,0.0,0 STARLINK-5285,1 55296U 23010AD  23345.95611701  .00000193  00000-0  23973-4 0  9991,2 55296  69.9995 288.6585 0002879 271.4873  88.5956 14.98326240 51518,6950.205,96.107,574.07,570.069,0.0
55296.0,STARLINK-5285,PAYLOAD,2023-12-12 03:45:12,14.98326177,0.00027,70.0003,288.1549,267.9822,92.1028,6.0804e-05,6.33e-06,0.0,0 STARLINK-5285,1 55296U 23010AD  23346.15639603  .00000633  00000-0  60804-4 0  9998,2 55296  70.0003 288.1549 0002700 267.9822  92.1028 14.98326177 50354,6950.205,96.107,573.946,570.193,0.0
55296.0,STARLINK-5285,PAYLOAD,2023-12-12 05:21:20,14.98327162,0.0002708,70.0003,287.9865,268.3824,91.7025,4.626e-05,4.59e-06,0.0,0 STARLINK-5285,1 55296U 23010AD  23346.22315611  .00000459  00000-0  46260-4 0  9992,2 55296  70.0003 287.9865 0002708 268.3824  91.7025 14.98327162 51557,6950.202,96.107,573.949,570.185,0.0
55296.0,STARLINK-5285,PAYLOAD,2023-12-12 22:58:49,14.98328178,0.0002565,70.0004,286.1349,255.0688,105.0187,4.7043e-05,4.68e-06,0.0,0 STARLINK-5285,1 55296U 23010AD  23346.95751577  .00000468  00000-0  47043-4 0  9997,2 55296  70.0004 286.1349 0002565 255.0688 105.0187 14.98328178 51666,6950.199,96.107,573.846,570.281,0.0
55296.0,STARLINK-5285,PAYLOAD,2023-12-13 03:47:13,14.98329503,0.0002525,70.0005,285.6307,252.7804,107.3079,6.4947e-05,6.82e-06,0.0,0 STARLINK-5285,1 55296U 23010AD  23347.15779453  .00000682  00000-0  64947-4 0  9993,2 55296  70.0005 285.6307 0002525 252.7804 107.3079 14.98329503 50505,6950.194,96.107,573.814,570.305,0.0
55296.0,STARLINK-5285,PAYLOAD,2023-12-13 05:23:21,14.98330195,0.0002484,70.0004,285.4621,250.8234,109.2656,5.1893e-05,5.26e-06,0.0,0 STARLINK-5285,1 55296U 23010AD  23347.22455444  .00000526  00000-0  51893-4 0  9995,2 55296  70.0004 285.4621 0002484 250.8234 109.2656 14.98330195 51705,6950.192,96.107,573.784,570.331,0.0
55296.0,STARLINK-5285,PAYLOAD,2023-12-13 21:24:42,14.98326389,0.000241,70.0011,283.7798,246.6532,113.4373,-3.8464e-05,-5.52e-06,0.0,0 STARLINK-5285,1 55296U 23010AD  23347.89215967 -.00000552  00000-0 -38464-4 0  9992,2 55296  70.0011 283.7798 0002410 246.6532 113.4373 14.98326389 51806,6950.204,96.107,573.744,570.394,0.0
55296.0,STARLINK-5285,PAYLOAD,2023-12-14 03:49:15,14.98323561,0.0002459,70.0008,283.1065,247.8179,112.2719,-6.5203e-05,-8.71e-06,0.0,0 STARLINK-5285,1 55296U 23010AD  23348.15920293 -.00000871  00000-0 -65203-4 0  9992,2 55296  70.0008 283.1065 0002459 247.8179 112.2719 14.98323561 50658,6950.213,96.107,573.787,570.369,0.0
55296.0,STARLINK-5285,PAYLOAD,2023-12-14 05:25:23,14.98323862,0.000246,70.0008,282.9381,249.4287,110.6608,-6.2094e-05,-8.34e-06,0.0,0 STARLINK-5285,1 55296U 23010AD  23348.22596294 -.00000834  00000-0 -62094-4 0  9994,2 55296  70.0008 282.9381 0002460 249.4287 110.6608 14.98323862 51852,6950.212,96.107,573.787,570.367,0.0
55296.0,STARLINK-5285,PAYLOAD,2023-12-14 21:26:42,14.98336082,0.0002638,70.0001,281.2538,256.8509,103.2356,2.4206e-05,1.96e-06,0.0,0 STARLINK-5285,1 55296U 23010AD  23348.89355258  .00000196  00000-0  24206-4 0  9992,2 55296  70.0001 281.2538 0002638 256.8509 103.2356 14.98336082 51954,6950.174,96.107,573.873,570.206,0.0
55296.0,STARLINK-5285,PAYLOAD,2023-12-15 03:51:15,14.9833655,0.0002631,70.0001,280.5808,255.5561,104.5306,3.0044e-05,2.66e-06,0.0,0 STARLINK-5285,1 55296U 23010AD  23349.16059121  .00000266  00000-0  30044-4 0  9998,2 55296  70.0001 280.5808 0002631 255.5561 104.5306 14.98336550 50805,6950.173,96.107,573.866,570.209,0.0
55296.0,STARLINK-5285,PAYLOAD,2023-12-15 05:27:23,14.98336988,0.0002628,70.0002,280.4126,255.4835,104.6033,3.4659e-05,3.21e-06,0.0,0 STARLINK-5285,1 55296U 23010AD  23349.22735056  .00000321  00000-0  34659-4 0  9991,2 55296  70.0002 280.4126 0002628 255.4835 104.6033 14.98336988 52004,6950.171,96.107,573.863,570.21,0.0
55296.0,STARLINK-5285,PAYLOAD,2023-12-15 19:52:36,14.98324255,0.0002603,70.0004,278.8987,251.8506,108.237,1.0392e-05,3.1e-07,0.0,0 STARLINK-5285,1 55296U 23010AD  23349.82819900  .00000031  00000-0  10392-4 0  9994,2 55296  70.0004 278.8987 0002603 251.8506 108.2370 14.98324255 50905,6950.211,96.107,573.885,570.267,0.0
55296.0,STARLINK-5285,PAYLOAD,2023-12-15 23:04:52,14.98324307,0.0002605,70.0004,278.5621,251.6711,108.4164,9.2913e-06,1.8e-07,0.0,0 STARLINK-5285,1 55296U 23010AD  23349.96171932  .00000018  00000-0  92913-5 0  9990,2 55296  70.0004 278.5621 0002605 251.6711 108.4164 14.98324307 52111,6950.21,96.107,573.886,570.265,0.0
55296.0,STARLINK-5285,PAYLOAD,2023-12-16 05:29:24,14.98323522,0.0002608,70.0003,277.8885,254.0658,106.0214,-2.2167e-06,-1.19e-06,0.0,0 STARLINK-5285,1 55296U 23010AD  23350.22876103 -.00000119  00000-0 -22167-5 0  9991,2 55296  70.0003 277.8885 0002608 254.0658 106.0214 14.98323522 52156,6950.213,96.107,573.891,570.265,0.0
55296.0,STARLINK-5285,PAYLOAD,2023-12-16 19:54:36,14.98335342,0.000261,70.0002,276.3736,256.8199,103.2669,-1.3095e-05,-2.49e-06,0.0,0 STARLINK-5285,1 55296U 23010AD  23350.82959387 -.00000249  00000-0 -13095-4 0  9996,2 55296  70.0002 276.3736 0002610 256.8199 103.2669 14.98335342 51051,6950.176,96.107,573.855,570.227,0.0
55296.0,STARLINK-5285,PAYLOAD,2023-12-16 21:30:44,14.98336515,0.0002577,70.0003,276.2047,256.8162,103.271,2.6616e-06,-6.1e-07,0.0,0 STARLINK-5285,1 55296U 23010AD  23350.89635247 -.00000061  00000-0  26616-5 0  9994,2 55296  70.0003 276.2047 0002577 256.8162 103.2710 14.98336515 52251,6950.173,96.107,573.829,570.247,0.0
55296.0,STARLINK-5285,PAYLOAD,2023-12-17 05:31:25,14.9833701,0.0002552,70.0003,275.3631,256.6967,103.3907,1.3013e-05,6.2e-07,0.0,0 STARLINK-5285,1 55296U 23010AD  23351.23015056  .00000062  00000-0  13013-4 0  9999,2 55296  70.0003 275.3631 0002552 256.6967 103.3907 14.98337010 52300,6950.171,96.107,573.81,570.263,0.0
55296.0,STARLINK-5285,PAYLOAD,2023-12-17 19:56:37,14.98331131,0.0002553,70.0002,273.8474,261.2225,98.8645,6.9767e-05,7.4e-06,0.0,0 STARLINK-5285,1 55296U 23010AD  23351.83099090  .00000740  00000-0  69767-4 0  9995,2 55296  70.0002 273.8474 0002553 261.2225  98.8645 14.98331131 51200,6950.189,96.107,573.829,570.28,0.0
55296.0,STARLINK-5285,PAYLOAD,2023-12-17 21:32:45,14.98331872,0.0002534,70.0003,273.6787,260.8536,99.2337,8.0726e-05,8.7e-06,0.0,0 STARLINK-5285,1 55296U 23010AD  23351.89775000  .00000870  00000-0  80726-4 0  9995,2 55296  70.0003 273.6787 0002534 260.8536  99.2337 14.98331872 52403,6950.187,96.107,573.813,570.291,0.0
55296.0,STARLINK-5285,PAYLOAD,2023-12-18 03:57:17,14.98337437,0.0002426,70.0004,273.0059,258.8091,101.2795,0.00013932,1.57e-05,0.0,0 STARLINK-5285,1 55296U 23010AD  23352.16478398  .00001570  00000-0  13932-3 0  9998,2 55296  70.0004 273.0059 0002426 258.8091 101.2795 14.98337437 51250,6950.17,96.107,573.721,570.349,0.0
55296.0,STARLINK-5285,PAYLOAD,2023-12-18 19:58:38,14.9831963,0.000217,70.0019,271.3242,237.4841,122.6109,0.00017528,1.999e-05,0.0,0 STARLINK-5285,1 55296U 23010AD  23352.83239056  .00001999  00000-0  17528-3 0  9998,2 55296  70.0019 271.3242 0002170 237.4841 122.6109 14.98319630 51355,6950.225,96.108,573.598,570.582,0.0
55296.0,STARLINK-5285,PAYLOAD,2023-12-18 21:34:46,14.98322229,0.0002288,70.0026,271.1587,225.0736,135.0238,0.00014848,1.679e-05,0.0,0 STARLINK-5285,1 55296U 23010AD  23352.89915030  .00001679  00000-0  14848-3 0  9994,2 55296  70.0026 271.1587 0002288 225.0736 135.0238 14.98322229 52551,6950.217,96.107,573.672,570.492,0.0
55296.0,STARLINK-5285,PAYLOAD,2023-12-19 03:59:18,14.98332416,0.0002225,70.0023,270.4844,226.7675,133.3298,-4.3602e-05,-6.13e-06,0.0,0 STARLINK-5285,1 55296U 23010AD  23353.16618911 -.00000613  00000-0 -43602-4 0  9993,2 55296  70.0023 270.4844 0002225 226.7675 133.3298 14.98332416 51406,6950.185,96.107,573.597,570.504,0.0
55296.0,STARLINK-5285,PAYLOAD,2023-12-20 04:01:20,14.98325095,0.0002407,70.0011,267.958,243.3914,116.6998,-0.0001425,-1.792e-05,0.0,0 STARLINK-5285,1 55296U 23010AD  23354.16759658 -.00001792  00000-0 -14250-3 0  9993,2 55296  70.0011 267.9580 0002407 243.3914 116.6998 14.98325095 51556,6950.208,96.107,573.746,570.4,0.0
